{"type": "FeatureCollection", "features": [ {"type": "Feature", "properties": {"norad_id": 34833, "name": "IRIDIUM 33 DEB", "group": "iridium-33-debris", "lat": 79.39126263941002, "lon": 69.62696961319561, "alt_km": 695.4004011459983, "timestamp": "2025-12-15T04:01:20.837323+00:00", "meta": {"OBJECT_NAME": "IRIDIUM 33 DEB", "OBJECT_ID": "1997-051MH", "EPOCH": "2025-12-14T04:45:15.078816", "MEAN_MOTION": 14.5239107, "ECCENTRICITY": 0.00217354, "INCLINATION": 86.3931, "RA_OF_ASC_NODE": 50.3648, "ARG_OF_PERICENTER": 94.0496, "MEAN_ANOMALY": 320.0854, "EPHEMERIS_TYPE": 0, "CLASSIFICATION_TYPE": "U", "NORAD_CAT_ID": 34833, "ELEMENT_SET_NO": 999, "REV_AT_EPOCH": 87736, "BSTAR": 0.00088730228, "MEAN_MOTION_DOT": 3.644e-05, "MEAN_MOTION_DDOT": 0}, "tle": {"line1": "1 34833U 97051MH  25348.19809119  .00003644  00000+0  88730-3 0  9998", "line2": "2 34833  86.3931  50.3648 0021735  94.0496 320.0854 14.52391070877364"}}, "geometry": {"type": "Point", "coordinates": [69.62696961319561, 79.39126263941002]}}, {"type": "Feature", "properties": {"norad_id": 34870, "name": "IRIDIUM 33 DEB", "group": "iridium-33-debris", "lat": -81.61558727631093, "lon": 158.9392419223846, "alt_km": 647.5669766144474, "timestamp": "2025-12-15T04:01:20.837334+00:00", "meta": {"OBJECT_NAME": "IRIDIUM 33 DEB", "OBJECT_ID": "1997-051MQ", "EPOCH": "2025-12-13T15:51:00.242208", "MEAN_MOTION": 14.76459498, "ECCENTRICITY": 0.00163253, "INCLINATION": 86.31, "RA_OF_ASC_NODE": 313.6624, "ARG_OF_PERICENTER": 179.046, "MEAN_ANOMALY": 357.3162, "EPHEMERIS_TYPE": 0, "CLASSIFICATION_TYPE": "U", "NORAD_CAT_ID": 34870, "ELEMENT_SET_NO": 999, "REV_AT_EPOCH": 88924, "BSTAR": 0.0017247419, "MEAN_MOTION_DOT": 0.00012059, "MEAN_MOTION_DDOT": 0}, "tle": {"line1": "1 34870U 97051MQ  25347.66041947  .00012059  00000+0  17247-2 0  9991", "line2": "2 34870  86.3100 313.6624 0016325 179.0460 357.3162 14.76459498889246"}}, "geometry": {"type": "Point", "coordinates": [158.9392419223846, -81.61558727631093]}}, {"type": "Feature", "properties": {"norad_id": 34896, "name": "IRIDIUM 33 DEB", "group": "iridium-33-debris", "lat": 14.542196319934078, "lon": -33.44937594385859, "alt_km": 690.8314751708795, "timestamp": "2025-12-15T04:01:20.837345+00:00", "meta": {"OBJECT_NAME": "IRIDIUM 33 DEB", "OBJECT_ID": "1997-051MY", "EPOCH": "2025-12-14T05:05:50.525376", "MEAN_MOTION": 14.66300164, "ECCENTRICITY": 0.00244756, "INCLINATION": 86.3287, "RA_OF_ASC_NODE": 326.0246, "ARG_OF_PERICENTER": 208.9085, "MEAN_ANOMALY": 166.7259, "EPHEMERIS_TYPE": 0, "CLASSIFICATION_TYPE": "U", "NORAD_CAT_ID": 34896, "ELEMENT_SET_NO": 999, "REV_AT_EPOCH": 87641, "BSTAR": 0.0011083556, "MEAN_MOTION_DOT": 6.162e-05, "MEAN_MOTION_DDOT": 0}, "tle": {"line1": "1 34896U 97051MY  25348.21239034  .00006162  00000+0  11084-2 0  9998", "line2": "2 34896  86.3287 326.0246 0024475 208.9085 166.7259 14.66300164876416"}}, "geometry": {"type": "Point", "coordinates": [-33.44937594385859, 14.542196319934078]}}, {"type": "Feature", "properties": {"norad_id": 34926, "name": "IRIDIUM 33 DEB", "group": "iridium-33-debris", "lat": -1.0975282235021542, "lon": 7.074550944244983, "alt_km": 699.1499856323362, "timestamp": "2025-12-15T04:01:20.837361+00:00", "meta": {"OBJECT_NAME": "IRIDIUM 33 DEB", "OBJECT_ID": "1997-051NF", "EPOCH": "2025-12-14T01:51:40.129056", "MEAN_MOTION": 14.54500914, "ECCENTRICITY": 0.00755735, "INCLINATION": 86.1333, "RA_OF_ASC_NODE": 7.654, "ARG_OF_PERICENTER": 288.4035, "MEAN_ANOMALY": 125.6013, "EPHEMERIS_TYPE": 0, "CLASSIFICATION_TYPE": "U", "NORAD_CAT_ID": 34926, "ELEMENT_SET_NO": 999, "REV_AT_EPOCH": 86476, "BSTAR": 0.0053943711, "MEAN_MOTION_DOT": 0.00023949, "MEAN_MOTION_DDOT": 0}, "tle": {"line1": "1 34926U 97051NF  25348.07754779  .00023949  00000+0  53944-2 0  9997", "line2": "2 34926  86.1333   7.6540 0075573 288.4035 125.6013 14.54500914864761"}}, "geometry": {"type": "Point", "coordinates": [7.074550944244983, -1.0975282235021542]}}, {"type": "Feature", "properties": {"norad_id": 34985, "name": "IRIDIUM 33 DEB", "group": "iridium-33-debris", "lat": 14.236546616443812, "lon": 56.766730656154934, "alt_km": 767.0736217507529, "timestamp": "2025-12-15T04:01:20.837384+00:00", "meta": {"OBJECT_NAME": "IRIDIUM 33 DEB", "OBJECT_ID": "1997-051NR", "EPOCH": "2025-12-14T04:53:38.247360", "MEAN_MOTION": 14.42019267, "ECCENTRICITY": 0.00208706, "INCLINATION": 86.37, "RA_OF_ASC_NODE": 56.2548, "ARG_OF_PERICENTER": 214.6902, "MEAN_ANOMALY": 200.0327, "EPHEMERIS_TYPE": 0, "CLASSIFICATION_TYPE": "U", "NORAD_CAT_ID": 34985, "ELEMENT_SET_NO": 999, "REV_AT_EPOCH": 87196, "BSTAR": 0.00078314681, "MEAN_MOTION_DOT": 2.594e-05, "MEAN_MOTION_DDOT": 0}, "tle": {"line1": "1 34985U 97051NR  25348.20391490  .00002594  00000+0  78315-3 0  9997", "line2": "2 34985  86.3700  56.2548 0020870 214.6902 200.0327 14.42019267871967"}}, "geometry": {"type": "Point", "coordinates": [56.766730656154934, 14.236546616443812]}}, {"type": "Feature", "properties": {"norad_id": 35051, "name": "IRIDIUM 33 DEB", "group": "iridium-33-debris", "lat": -4.385529927562085, "lon": 7.521795694217865, "alt_km": 736.5920728305155, "timestamp": "2025-12-15T04:01:20.837403+00:00", "meta": {"OBJECT_NAME": "IRIDIUM 33 DEB", "OBJECT_ID": "1997-051NX", "EPOCH": "2025-12-11T08:47:57.045408", "MEAN_MOTION": 14.47588957, "ECCENTRICITY": 0.00106566, "INCLINATION": 86.3243, "RA_OF_ASC_NODE": 9.4603, "ARG_OF_PERICENTER": 94.8899, "MEAN_ANOMALY": 265.3522, "EPHEMERIS_TYPE": 0, "CLASSIFICATION_TYPE": "U", "NORAD_CAT_ID": 35051, "ELEMENT_SET_NO": 999, "REV_AT_EPOCH": 86976, "BSTAR": 0.001042299, "MEAN_MOTION_DOT": 3.858e-05, "MEAN_MOTION_DDOT": 0}, "tle": {"line1": "1 35051U 97051NX  25345.36663247  .00003858  00000+0  10423-2 0  9997", "line2": "2 35051  86.3243   9.4603 0010656  94.8899 265.3522 14.47588957869768"}}, "geometry": {"type": "Point", "coordinates": [7.521795694217865, -4.385529927562085]}}, {"type": "Feature", "properties": {"norad_id": 35052, "name": "IRIDIUM 33 DEB", "group": "iridium-33-debris", "lat": 65.12743727299677, "lon": 27.391329672059086, "alt_km": 747.6788316502225, "timestamp": "2025-12-15T04:01:20.837420+00:00", "meta": {"OBJECT_NAME": "IRIDIUM 33 DEB", "OBJECT_ID": "1997-051NY", "EPOCH": "2025-12-13T20:00:00.868896", "MEAN_MOTION": 14.38493698, "ECCENTRICITY": 0.00136505, "INCLINATION": 86.331, "RA_OF_ASC_NODE": 20.0075, "ARG_OF_PERICENTER": 82.0555, "MEAN_ANOMALY": 278.2192, "EPHEMERIS_TYPE": 0, "CLASSIFICATION_TYPE": "U", "NORAD_CAT_ID": 35052, "ELEMENT_SET_NO": 999, "REV_AT_EPOCH": 87291, "BSTAR": 0.00024132483, "MEAN_MOTION_DOT": 7.57e-06, "MEAN_MOTION_DDOT": 0}, "tle": {"line1": "1 35052U 97051NY  25347.83334339  .00000757  00000+0  24132-3 0  9997", "line2": "2 35052  86.3310  20.0075 0013650  82.0555 278.2192 14.38493698872915"}}, "geometry": {"type": "Point", "coordinates": [27.391329672059086, 65.12743727299677]}}, {"type": "Feature", "properties": {"norad_id": 35080, "name": "IRIDIUM 33 DEB", "group": "iridium-33-debris", "lat": -61.96096602338928, "lon": 44.058101576504605, "alt_km": 641.1120493007065, "timestamp": "2025-12-15T04:01:20.837436+00:00", "meta": {"OBJECT_NAME": "IRIDIUM 33 DEB", "OBJECT_ID": "1997-051PF", "EPOCH": "2025-12-14T04:04:06.646368", "MEAN_MOTION": 14.86306117, "ECCENTRICITY": 0.00599054, "INCLINATION": 86.2063, "RA_OF_ASC_NODE": 51.6925, "ARG_OF_PERICENTER": 174.8299, "MEAN_ANOMALY": 185.3558, "EPHEMERIS_TYPE": 0, "CLASSIFICATION_TYPE": "U", "NORAD_CAT_ID": 35080, "ELEMENT_SET_NO": 999, "REV_AT_EPOCH": 69709, "BSTAR": 0.0068845127, "MEAN_MOTION_DOT": 0.00063095, "MEAN_MOTION_DDOT": 0}, "tle": {"line1": "1 35080U 97051PF  25348.16952137  .00063095  00000+0  68845-2 0  9999", "line2": "2 35080  86.2063  51.6925 0059905 174.8299 185.3558 14.86306117697092"}}, "geometry": {"type": "Point", "coordinates": [44.058101576504605, -61.96096602338928]}}, {"type": "Feature", "properties": {"norad_id": 35297, "name": "IRIDIUM 33 DEB", "group": "iridium-33-debris", "lat": 30.25354145736748, "lon": 63.83492932403, "alt_km": 742.5059225610694, "timestamp": "2025-12-15T04:01:20.837452+00:00", "meta": {"OBJECT_NAME": "IRIDIUM 33 DEB", "OBJECT_ID": "1997-051PM", "EPOCH": "2025-12-12T22:42:20.538720", "MEAN_MOTION": 14.45159336, "ECCENTRICITY": 0.00177378, "INCLINATION": 86.3854, "RA_OF_ASC_NODE": 62.6701, "ARG_OF_PERICENTER": 139.4968, "MEAN_ANOMALY": 220.7558, "EPHEMERIS_TYPE": 0, "CLASSIFICATION_TYPE": "U", "NORAD_CAT_ID": 35297, "ELEMENT_SET_NO": 999, "REV_AT_EPOCH": 70429, "BSTAR": 0.0010165954, "MEAN_MOTION_DOT": 3.583e-05, "MEAN_MOTION_DDOT": 0}, "tle": {"line1": "1 35297U 97051PM  25346.94607105  .00003583  00000+0  10166-2 0  9994", "line2": "2 35297  86.3854  62.6701 0017737 139.4968 220.7558 14.45159336704291"}}, "geometry": {"type": "Point", "coordinates": [63.83492932403, 30.25354145736748]}}, {"type": "Feature", "properties": {"norad_id": 35299, "name": "IRIDIUM 33 DEB", "group": "iridium-33-debris", "lat": -73.78900383871215, "lon": 19.22934599791107, "alt_km": 804.2606087053746, "timestamp": "2025-12-15T04:01:20.837468+00:00", "meta": {"OBJECT_NAME": "IRIDIUM 33 DEB", "OBJECT_ID": "1997-051PP", "EPOCH": "2025-12-13T21:30:05.373792", "MEAN_MOTION": 14.40869269, "ECCENTRICITY": 0.00589763, "INCLINATION": 86.2887, "RA_OF_ASC_NODE": 32.6829, "ARG_OF_PERICENTER": 98.7178, "MEAN_ANOMALY": 74.9066, "EPHEMERIS_TYPE": 0, "CLASSIFICATION_TYPE": "U", "NORAD_CAT_ID": 35299, "ELEMENT_SET_NO": 999, "REV_AT_EPOCH": 86347, "BSTAR": 0.00094211768, "MEAN_MOTION_DOT": 3.102e-05, "MEAN_MOTION_DDOT": 0}, "tle": {"line1": "1 35299U 97051PP  25347.89589553  .00003102  00000+0  94212-3 0  9999", "line2": "2 35299  86.2887  32.6829 0058976  98.7178  74.9066 14.40869269863473"}}, "geometry": {"type": "Point", "coordinates": [19.22934599791107, -73.78900383871215]}}]}